[{"OBJECT_NAME":"STARLINK-31797","OBJECT_ID":"2024-082D","EPOCH":"2026-03-09T13:32:05.203968","MEAN_MOTION":15.27570618,"ECCENTRICITY":0.0001214,"INCLINATION":43.0006,"RA_OF_ASC_NODE":140.4405,"ARG_OF_PERICENTER":261.4726,"MEAN_ANOMALY":98.5988,"EPHEMERIS_TYPE":0,"CLASSIFICATION_TYPE":"U","NORAD_CAT_ID":59634,"ELEMENT_SET_NO":999,"REV_AT_EPOCH":10483,"BSTAR":-6.9527e-6,"MEAN_MOTION_DOT":-4.53e-6,"MEAN_MOTION_DDOT":0},{"OBJECT_NAME":"TEVEL2-8","OBJECT_ID":"2025-052AF","EPOCH":"2026-03-09T16:02:08.542752","MEAN_MOTION":15.28392908,"ECCENTRICITY":0.0008031,"INCLINATION":97.4055,"RA_OF_ASC_NODE":324.2923,"ARG_OF_PERICENTER":124.9191,"MEAN_ANOMALY":235.2804,"EPHEMERIS_TYPE":0,"CLASSIFICATION_TYPE":"U","NORAD_CAT_ID":63239,"ELEMENT_SET_NO":999,"REV_AT_EPOCH":5480,"BSTAR":0.00069303947,"MEAN_MOTION_DOT":0.0001913,"MEAN_MOTION_DDOT":0}]
